BEESAT-4                
1 41619U 16040W   22237.09291232  .00006758  00000+0  21634-3 0  9990
2 41619  97.2117 285.9425 0008079 220.6001 139.4640 15.32682729331234
CAS-2T & KS-1Q          
1 41847U 16066G   22237.19766929  .00000240  00000+0  46102-4 0  9990
2 41847  98.5462 301.7765 0363482   4.4289 355.9971 14.38700165304238
NAYIF-1 (EO-88)         
1 42017U 17008BX  22237.76888918  .00007681  00000+0  21794-3 0  9998
2 42017  97.2644 302.9482 0004464  17.3966 342.7430 15.36485840307711
ZHUHAI-1 02 (CAS-4B)    
1 42759U 17034B   22237.91762731  .00002238  00000+0  13966-3 0  9996
2 42759  43.0189 309.6956 0009517 358.5758 350.3522 15.12312850286863
ZHUHAI-1 01 (CAS-4A)    
1 42761U 17034D   22237.91645973  .00001967  00000+0  12403-3 0  9990
2 42761  43.0182 308.4398 0009776   0.2703 169.0682 15.12395194286879
MAX VALIER SAT          
1 42778U 17036P   22237.82959731  .00003671  00000+0  13712-3 0  9998
2 42778  97.2004 276.5701 0012474  82.8410 277.4247 15.27907138287497
RADFXSAT (FOX-1B)       
1 43017U 17073E   22237.25783033  .00001887  00000+0  14583-3 0  9997
2 43017  97.6657 128.6248 0246245 322.7894  35.6470 14.81859255257306
FOX-1D (AO-92)          
1 43137U 18004AC  22237.16243870  .00004470  00000+0  15417-3 0  9993
2 43137  97.3655 311.7376 0009066 115.1168 245.1015 15.30465029256856
DIWATA-2B               
1 43678U 18084H   22237.78485259  .00000170  00000+0  22395-4 0  9995
2 43678  97.9793  11.9016 0011103  60.6382 299.5946 14.92263010208195
ES'HAIL 2               
1 43700U 18090A   22237.36021788  .00000140  00000+0  00000+0 0  9996
2 43700   0.0207 144.7620 0001953  50.4835 293.8350  1.00272716 13721
FOX-1CLIFF (AO-95)      
1 43770U 18099N   22238.12556699  .00001187  00000+0  10877-3 0  9990
2 43770  97.6183 302.6647 0015000  48.9552 311.3022 14.96702276203432
ITASAT 1                
1 43786U 18099AE  22237.17700784  .00000778  00000+0  72771-4 0  9994
2 43786  97.6185 302.6922 0015474  42.2387 318.0024 14.96809513203332
JY1SAT (JO-97)          
1 43803U 18099AX  22237.43798511  .00000867  00000+0  79395-4 0  9996
2 43803  97.6147 302.7231 0015246  39.9058 320.3282 14.97365506203397
UWE-4                   
1 43880U 18111E   22237.38781279  .00000728  00000+0  65783-4 0  9995
2 43880  97.6609 142.4900 0012921  87.6059 272.6643 14.98449626200029
NEXUS (FO-99)           
1 43937U 19003F   22237.82355242  .00005574  00000+0  18153-3 0  9997
2 43937  97.1264 268.5253 0017827 263.9267  95.9944 15.32083941200590
PSAT2 (NO-104)          
1 44354U 19036R   22237.79035647  .00043347 -56661-5  33721-3 0  9996
2 44354  28.5233  55.1959 0208578  36.4909 324.9711 15.46187819175404
JAISAT-1                
1 44419U 19038F   22237.85851541  .00003682  00000+0  18287-3 0  9993
2 44419  97.6408 208.6052 0016950 248.8466 111.0956 15.18213261173587
DUCHIFAT-3              
1 44854U 19089C   22237.83479693  .00002269  00000+0  17843-3 0  9991
2 44854  36.9659  48.9026 0007540  53.3619  78.9164 15.01444263148364
CAS-6 (TIANQIN 1)       
1 44881U 19093C   22237.79515793  .00000323  00000+0  47529-4 0  9997
2 44881  97.8907 316.0038 0014200 325.5989  34.4295 14.81792454145042
RS-44 & BREEZE-KM R/B   
1 44909U 19096E   22237.85161427  .00000007  00000+0 -20675-4 0  9992
2 44909  82.5240 184.1744 0217725 157.1906 203.9050 12.79714412124386
ORBITAL FACTORY 2 (OF-2)
1 45113U 19071C   22237.29769802  .00014528  00000+0  27613-3 0  9992
2 45113  51.6375  79.8547 0008847  71.2194 288.9753 15.48469510144031
HUSKYSAT-1 (HO-107)     
1 45119U 19071J   22237.28830279  .00011403  00000+0  22877-3 0  9990
2 45119  51.6373  80.5116 0008868  66.7685 293.4236 15.47147580144017
BY70-2                  
1 45857U 20042B   22237.78477206  .00004208  00000+0  55609-3 0  9995
2 45857  97.9533 313.9889 0009177 243.9254 116.0927 14.80502771115717
SALSAT                  
1 46495U 20068K   22237.45938336  .00001600  00000+0  11772-3 0  9998
2 46495  97.7315 178.8014 0017491  47.2993 312.9702 15.04743180104560
BY70-3                  
1 46839U 20079N   22237.95304483  .00013393  00000+0  28978-3 0  9995
2 46839  97.1936 309.2438 0006522  90.3376  23.5380 15.44568032100964
RADFXSAT-2 (AO-109)     
1 47311U 21002C   22237.34341454  .00003245  00000+0  13403-3 0  9992
2 47311  60.6851 102.7366 0028623  26.5737 333.6811 15.26204712 88977
UVSQ-SAT                
1 47438U 21006AB  22237.12223285  .00002606  00000+0  13758-3 0  9996
2 47438  97.4324 294.7321 0012648  43.6605 316.5626 15.16340974 87688
DIY-1 (ARDUIQUBE)       
1 47963U 21022AH  22237.52769724  .00006814  00000+0  36535-3 0  9997
2 47963  97.5248 138.1478 0014010 252.0369 107.9336 15.15219489 77403
XW-3 (CAS-9)            
1 50466U 21131B   22237.79808135 -.00000036  00000+0  28459-5 0  9998
2 50466  98.5780 315.0109 0003406 310.2448  49.8441 14.38516715 34888
TEVEL-3                 
1 50988U 22002E   22237.79339602  .00004205  00000+0  22754-3 0  9994
2 50988  97.4774 303.6351 0009766 174.5093 281.1887 15.15154935 33918
TEVEL-8                 
1 50989U 22002F   22237.80069164  .00004077  00000+0  22106-3 0  9998
2 50989  97.4791 303.6679 0009539 173.4279 281.1531 15.15100913 33916
TEVEL-5                 
1 50998U 22002Q   22237.72623491  .00004418  00000+0  23548-3 0  9998
2 50998  97.4764 303.7027 0011270 171.4085 285.1565 15.15647553 33919
TEVEL-6                 
1 50999U 22002R   22237.79158007  .00004450  00000+0  23715-3 0  9994
2 50999  97.4763 303.7647 0011347 170.7545 285.0892 15.15652899 33927
TEVEL-1                 
1 51013U 22002AF  22237.79668315  .00004233  00000+0  22918-3 0  9993
2 51013  97.4771 303.6174 0009675 174.4592 280.9441 15.15129111 33911
TEVEL-7                 
1 51062U 22002CG  22237.80248527  .00004013  00000+0  21770-3 0  9999
2 51062  97.4780 303.6558 0009748 172.8039 282.1688 15.15092232 33910
TEVEL-4                 
1 51063U 22002CH  22237.73745183  .00004012  00000+0  21770-3 0  9991
2 51063  97.4781 303.5883 0009774 173.2748 282.5535 15.15082386 33906
TEVEL-2                 
1 51069U 22002CP  22237.79471302  .00004269  00000+0  23096-3 0  9999
2 51069  97.4775 303.6224 0009703 174.0842 281.4597 15.15147989 33919
RS3S                    
1 53308U 98067TT  22237.78961043  .00023523  00000+0  38516-3 0  9993
2 53308  51.6428 351.4913 0001453 137.9696 222.1406 15.52369979  5522
RS1S                    
1 53309U 98067TU  22237.78870099  .00023902  00000+0  39029-3 0  9995
2 53309  51.6426 351.4843 0001868 168.7898 191.3133 15.52436671  5471
RS5S                    
1 53310U 98067TV  22237.78915193  .00023415  00000+0  38357-3 0  9994
2 53310  51.6430 351.4887 0001615 170.7353 189.3667 15.52359121  5502
RS6S                    
1 53311U 98067TW  22237.78672545  .00023562  00000+0  38307-3 0  9994
2 53311  51.6424 351.4710 0001271 120.4180 239.6936 15.52567257  5520
RS9S                    
1 53312U 98067TX  22237.78750872  .00024276  00000+0  39551-3 0  9990
2 53312  51.6429 351.4765 0002046 173.2877 186.8140 15.52488792  5465
RS12S                   
1 53313U 98067TY  22237.78650703  .00023904  00000+0  38898-3 0  9993
2 53313  51.6428 351.4704 0001619 182.7181 177.3801 15.52531970  5518
RS4S                    
1 53321U 98067TZ  22237.79008573  .00023848  00000+0  39044-3 0  9996
2 53321  51.6431 351.4957 0001495 152.7967 207.3102 15.52364321  5514
RS29S (SXC3-2110 CYCLO*)
1 53373U 22096D   22237.98619391  .00004843  00000+0  19930-3 0  9995
2 53373  97.4353 139.3283 0003579 105.0456 310.8983 15.24602240  2547
RS32S (SXC3-212 MONITO*)
1 53374U 22096E   22237.98501394  .00004749  00000+0  19488-3 0  9992
2 53374  97.4350 139.3305 0003790 101.2533 314.5142 15.24707766  2546
RS34S (SXC3-218 KUZBAS*)
1 53375U 22096F   22237.79371567  .00004312  00000+0  17721-3 0  9993
2 53375  97.4345 139.1412 0003684 102.5545 344.8723 15.24709202  2512
RS23S (SXC3-21 UTMN)    
1 53376U 22096G   22237.93235931  .00004367  00000+0  17920-3 0  9995
2 53376  97.4351 139.2799 0003737  99.1644  30.9469 15.24751746  2531
RS28S (SXC3-214 MIET-A*)
1 53377U 22096H   22237.93181009  .00004192  00000+0  17203-3 0  9992
2 53377  97.4351 139.2794 0003672  97.1124  31.7115 15.24776502  2530
RS26S (KAI-1)           
1 53378U 22096J   22237.79285042  .00003817  00000+0  15678-3 0  9996
2 53378  97.4350 139.1422 0003628  96.9186 351.8202 15.24803902  2519
RS19S (SXC3-219 ISOI)   
1 53381U 22096M   22237.78818174  .00004169  00000+0  16886-3 0  9990
2 53381  97.4351 139.1488 0005592  52.1409  34.8848 15.25214162  2519
RS21S (CUBESX-HSE-2)    
1 53383U 22096P   22237.84963117  .00004111  00000+0  16625-3 0  9995
2 53383  97.4352 139.2102 0005723  50.7679  17.1502 15.25276642  2528
RS30S (SXC3-217 SIREN)  
1 53384U 22096Q   22237.84889869  .00004184  00000+0  16902-3 0  9995
2 53384  97.4345 139.2103 0005749  52.4648  12.7619 15.25297501  2522
RS20S (GEOSCAN-EDELVEIS)
1 53385U 22096R   22237.84721499  .00005033  00000+0  20170-3 0  9996
2 53385  97.4346 139.2140 0006390  48.9389  16.0196 15.25465146  2552
RS33S (SXC3-215 VIZARD) 
1 53386U 22096S   22237.78277594  .00006322  00000+0  25075-3 0  9993
2 53386  97.4342 139.1538 0006902  49.9141  34.2240 15.25704384  2535
